[{"OBJECT_NAME":"GEESAT-4 01","OBJECT_ID":"2025-170A","EPOCH":"2026-03-09T23:13:09.806304","MEAN_MOTION":14.83887385,"ECCENTRICITY":0.00109011,"INCLINATION":49.9869,"RA_OF_ASC_NODE":274.5191,"ARG_OF_PERICENTER":31.7658,"MEAN_ANOMALY":328.3936,"EPHEMERIS_TYPE":0,"CLASSIFICATION_TYPE":"U","NORAD_CAT_ID":65119,"ELEMENT_SET_NO":999,"REV_AT_EPOCH":3170,"BSTAR":0.00035858481,"MEAN_MOTION_DOT":2.784e-5,"MEAN_MOTION_DDOT":0},{"OBJECT_NAME":"CZ-6A DEB","OBJECT_ID":"2022-151ABY","EPOCH":"2026-03-09T10:11:37.732992","MEAN_MOTION":14.5624545,"ECCENTRICITY":0.0144503,"INCLINATION":98.5823,"RA_OF_ASC_NODE":130.0785,"ARG_OF_PERICENTER":132.7772,"MEAN_ANOMALY":228.5685,"EPHEMERIS_TYPE":0,"CLASSIFICATION_TYPE":"U","NORAD_CAT_ID":56256,"ELEMENT_SET_NO":999,"REV_AT_EPOCH":15744,"BSTAR":0.00063810293,"MEAN_MOTION_DOT":3.198e-5,"MEAN_MOTION_DDOT":0}]
